ISS OBJECT XZ           
1 67683U 98067XZ  26066.28034890  .00051497  00000+0  85311-3 0  9990
2 67683  51.6304  83.8190 0009510 177.5341 182.5698 15.51601257  4414
